0 FENGYUN 1C DEB
1 30616U 99025AMX 13286.89610549  .00000736  00000-0  10862-2 0  9707
2 30616 098.6270 262.6609 0403687 161.8102 231.7856 13.28007621326157
0 FENGYUN 1C DEB
1 30616U 99025AMX 13289.40741200  .00000772  00000-0  11359-2 0  9719
2 30616 098.6276 264.7619 0403862 155.5743 357.9457 13.28013492326480
0 FENGYUN 1C DEB
1 30616U 99025AMX 13292.42180841  .00000906  00000-0  13237-2 0  9720
2 30616 098.6282 267.2840 0404057 148.0991 009.3521 13.28018704326885
0 FENGYUN 1C DEB
1 30616U 99025AMX 13294.88218179  .00001019  00000-0  14830-2 0  9735
2 30616 098.6283 269.3428 0404213 142.0013 252.0956 13.28023813327218
